BEIDOU 3 (C01)          
1 36287U 10001A   22328.59702091 -.00000261  00000+0  00000+0 0  9996
2 36287   1.7912  49.9692 0001452 252.3380 116.5986  1.00274484 47122
BEIDOU 5 (C06)          
1 36828U 10036A   22328.51678653 -.00000023  00000+0  00000+0 0  9999
2 36828  54.1973 174.7669 0030376 182.9426 356.9776  1.00252486 45188
BEIDOU 6 (C04)          
1 37210U 10057A   22328.55952446 -.00000092  00000+0  00000+0 0  9993
2 37210   0.8327  45.8342 0007016 164.2909 214.8363  1.00271435 44240
BEIDOU 7 (C07)          
1 37256U 10068A   22328.62362711 -.00000207  00000+0  00000+0 0  9991
2 37256  49.9300 287.7277 0022576 207.5484 259.0047  1.00256299 43752
BEIDOU 8 (C08)          
1 37384U 11013A   22328.14191999 -.00000201  00000+0  00000+0 0  9993
2 37384  60.5225  52.6866 0024452 184.8454 344.2731  1.00265937 42622
BEIDOU 9 (C09)          
1 37763U 11038A   22328.57393021  .00000078  00000+0  00000+0 0  9999
2 37763  54.4776 177.2684 0100749 227.5924 318.5163  1.00289916 41602
BEIDOU 10 (C10)         
1 37948U 11073A   22328.37087242 -.00000156  00000+0  00000+0 0  9994
2 37948  50.0509 287.3780 0085698 220.8876 142.3758  1.00258128 40366
BEIDOU 11 (C05)         
1 38091U 12008A   22328.57919664  .00000075  00000+0  00000+0 0  9996
2 38091   1.9215  70.6176 0009191 318.3936 301.7923  1.00275561 39432
BEIDOU 12 (C11)         
1 38250U 12018A   22328.25337265 -.00000058  00000+0  00000+0 0  9992
2 38250  56.6411 348.2803 0025027 254.8714 174.6463  1.86234444 72060
BEIDOU 13 (C12)         
1 38251U 12018B   22328.34873252 -.00000058  00000+0  00000+0 0  9994
2 38251  56.5565 347.5904 0015942 256.6009 280.9718  1.86234241 72065
BEIDOU 15 (C14)         
1 38775U 12050B   22328.34956102  .00000032  00000+0  00000+0 0  9998
2 38775  55.4981 106.3055 0010846 332.0429  41.7175  1.86231281 69446
BEIDOU 16 (C02)         
1 38953U 12059A   22328.51251545 -.00000155  00000+0  00000+0 0  9990
2 38953   1.3177  81.7703 0024419 291.9466 318.2926  1.00270554 37007
BEIDOU 17 (C31)         
1 40549U 15019A   22328.42722860 -.00000171  00000+0  00000+0 0  9994
2 40549  51.6106 310.8914 0037921 200.4276 160.2884  1.00262533 28047
BEIDOU 18 (C57)         
1 40748U 15037A   22328.35572684 -.00000059  00000+0  00000+0 0  9999
2 40748  55.8046 346.3590 0002463 325.2355 126.2733  1.86233411 49896
BEIDOU 19 (C58)         
1 40749U 15037B   22328.05899301 -.00000058  00000+0  00000+0 0  9994
2 40749  55.8097 346.3587 0005837 298.9910  87.6789  1.86233150 49880
BEIDOU 20 (C18)         
1 40938U 15053A   22328.22232385 -.00000140  00000+0  00000+0 0  9996
2 40938  51.2567 274.0351 0044554 200.1473 123.0544  1.00256363 26309
BEIDOU IGSO-6 (C13)     
1 41434U 16021A   22327.79644644 -.00000166  00000+0  00000+0 0  9998
2 41434  58.3304  51.1942 0049629 220.3325 171.1970  1.00294583 24431
BEIDOU-2 G7 (C03)       
1 41586U 16037A   22328.56854934 -.00000334  00000+0  00000+0 0  9991
2 41586   1.7333  69.3213 0008066 351.3442 318.0983  1.00273044 23748
BEIDOU-3 M1 (C19)       
1 43001U 17069A   22327.64856813  .00000035  00000+0  00000+0 0  9994
2 43001  55.6505 106.3509 0007367 288.5103 131.6714  1.86231567 34368
BEIDOU-3 M2 (C20)       
1 43002U 17069B   22327.90196434  .00000034  00000+0  00000+0 0  9999
2 43002  55.6506 106.3781 0005381 321.3205 311.5605  1.86231264 34356
BEIDOU-3 M3 (C27)       
1 43107U 18003A   22328.32557659 -.00000061  00000+0  00000+0 0  9992
2 43107  55.2578 347.2069 0003060  55.7512 307.5251  1.86232466 33135
BEIDOU-3 M4 (C28)       
1 43108U 18003B   22327.99424292 -.00000060  00000+0  00000+0 0  9990
2 43108  55.2509 347.2056 0004489 249.9892 294.1349  1.86230946 33129
BEIDOU-3 M5 (C21)       
1 43207U 18018A   22328.16352372  .00000033  00000+0  00000+0 0  9994
2 43207  55.6102 106.4419 0003621   8.1948 351.7807  1.86231524 32518
BEIDOU-3 M6 (C22)       
1 43208U 18018B   22327.78652402  .00000035  00000+0  00000+0 0  9991
2 43208  55.6119 106.4599 0005141 301.7335 120.7250  1.86231704 32502
BEIDOU-3 M7 (C29)       
1 43245U 18029A   22328.48845221 -.00000060  00000+0  00000+0 0  9994
2 43245  55.1641 344.9579 0001606 254.3759 128.6601  1.86232662 31678
BEIDOU-3 M8 (C30)       
1 43246U 18029B   22327.84657541 -.00000059  00000+0  10000-3 0  9993
2 43246  55.1621 345.0089 0003696 337.2879  22.0682  1.86232918 31647
BEIDOU IGSO-7 (C16)     
1 43539U 18057A   22328.55385196 -.00000036  00000+0  00000+0 0  9992
2 43539  55.0893 174.3149 0051201 225.7159 336.5138  1.00261472 16116
BEIDOU-3 M9 (C23)       
1 43581U 18062A   22328.36273200  .00000052  00000+0  00000+0 0  9993
2 43581  54.2345 226.6153 0003637 303.4529 253.3957  1.86232010 29408
BEIDOU-3 M10 (C24)      
1 43582U 18062B   22328.06084962  .00000052  00000+0  00000+0 0  9996
2 43582  54.2330 226.6141 0006247  10.7613  75.7005  1.86232522 29400
BEIDOU-3 M11 (C25)      
1 43602U 18067A   22327.94472641  .00000054  00000+0  00000+0 0  9997
2 43602  54.3181 225.2477 0007696  13.5079  36.0717  1.86231543 28895
BEIDOU-3 M12 (C26)      
1 43603U 18067B   22328.26707310  .00000055  00000+0  00000+0 0  9999
2 43603  54.3148 225.2029 0004728   4.8610 171.1847  1.86231516 28917
BEIDOU-3 M13 (C32)      
1 43622U 18072A   22328.22687969  .00000032  00000+0  00000+0 0  9994
2 43622  55.5785 105.9890 0004318 278.0775 259.8656  1.86231561 28428
BEIDOU-3 M14 (C33)      
1 43623U 18072B   22327.85705200  .00000033  00000+0  00000+0 0  9993
2 43623  55.5795 105.9941 0002025 328.4498  51.7813  1.86231519 28429
BEIDOU-3 M15 (C34)      
1 43647U 18078A   22327.17202303 -.00000057  00000+0  10000-3 0  9998
2 43647  55.0607 345.1486 0005901 352.6078 184.1345  1.86232957 27914
BEIDOU-3 M16 (C35)      
1 43648U 18078B   22328.20422247 -.00000060  00000+0  00000+0 0  9994
2 43648  55.0559 345.1188 0003532 356.3038  59.9493  1.86232309 27953
BEIDOU-3 G1 (C59)       
1 43683U 18085A   22328.50119019 -.00000257  00000+0  00000+0 0  9992
2 43683   1.0987 143.0259 0004335  62.6448 178.2810  1.00270545 15018
BEIDOU-3 M17 (C36)      
1 43706U 18093A   22328.27064967  .00000053  00000+0  00000+0 0  9995
2 43706  54.3152 226.5153 0008455 287.5722  72.4157  1.86231833 27315
BEIDOU-3 M18 (C37)      
1 43707U 18093B   22327.43126111  .00000051  00000+0  00000+0 0  9991
2 43707  54.3171 226.5341 0007923 314.5680 294.0209  1.86232359 27289
BEIDOU-3 IGSO-1 (C38)   
1 44204U 19023A   22328.55023507 -.00000231  00000+0  00000+0 0  9998
2 44204  56.7970  51.2621 0024279 193.6313 135.1389  1.00261489 13316
BEIDOU-2 G8             
1 44231U 19027A   22327.79632740 -.00000227  00000+0  00000+0 0  9997
2 44231   1.2457  79.8667 0006411 134.1627 279.8043  1.00266439 13024
BEIDOU-3 IGSO-2 (C39)   
1 44337U 19035A   22328.55163321 -.00000038  00000+0  00000+0 0  9992
2 44337  55.1285 170.3009 0025744 188.2555  21.2807  1.00255058 12655
BEIDOU-3 M23 (C45)      
1 44542U 19061A   22328.20709362  .00000053  00000+0  00000+0 0  9998
2 44542  54.5420 226.6908 0008946 350.9799   9.0837  1.86231468 21563
BEIDOU-3 M24 (C46)      
1 44543U 19061B   22327.54146777  .00000051  00000+0  00000+0 0  9998
2 44543  54.5417 226.6827 0005968 338.8434 206.4576  1.86231980 21542
BEIDOU-3 IGSO-3         
1 44709U 19073A   22328.30453990 -.00000199  00000+0  10000-3 0  9997
2 44709  57.0052 294.7200 0026603 183.4966 173.4512  1.00260418 11392
BEIDOU-3 M21            
1 44793U 19078A   22328.08943112 -.00000060  00000+0  10000-3 0  9997
2 44793  54.9088 345.1193 0005621 359.2699  26.1898  1.86232298 20429
BEIDOU-3 M22            
1 44794U 19078B   22328.18728944 -.00000060  00000+0  00000+0 0  9998
2 44794  54.8819 345.1039 0003707 347.7012  15.3132  1.86232878 20429
BEIDOU-3 M19            
1 44864U 19090A   22327.76195510  .00000034  00000+0  00000+0 0  9990
2 44864  55.5120 106.2072 0015116 267.5264   4.6322  1.86231798 19990
BEIDOU-3 M20            
1 44865U 19090B   22328.30205447  .00000032  00000+0  00000+0 0  9991
2 44865  55.5142 106.2210 0013011 282.1747  81.9335  1.86231750 19989
BEIDOU-3 G2             
1 45344U 20017A   22328.43999424 -.00000122  00000+0  00000+0 0  9995
2 45344   1.9997   0.4769 0002416 188.9177 112.4177  1.00269712 10212
BEIDOU-3 G3             
1 45807U 20040A   22328.44609576 -.00000334  00000+0  00000+0 0  9997
2 45807   1.0930 309.6617 0008507 340.3791  44.5083  1.00274465  9033
